NORAD_CAT_ID,OBJECT_NAME,OBJECT_TYPE,EPOCH,MEAN_MOTION,ECCENTRICITY,INCLINATION,RA_OF_ASC_NODE,ARG_OF_PERICENTER,MEAN_ANOMALY,BSTAR,MEAN_MOTION_DOT,MEAN_MOTION_DDOT,TLE_LINE0,TLE_LINE1,TLE_LINE2,SEMIMAJOR_AXIS,PERIOD,APOGEE,PERIGEE,DECAYED
54011.0,STARLINK-5124,PAYLOAD,2023-08-10 17:00:28,15.0883999,0.0001099,53.2158,112.9872,110.4435,249.6675,-2.9503e-06,-3.35e-06,0.0,0 STARLINK-5124,1 54011U 22125AZ  23222.70866432 -.00000335  00000-0 -29503-5 0  9997,2 54011  53.2158 112.9872 0001099 110.4435 249.6675 15.08839990 47444,6917.88,95.438,540.506,538.985,0.0
54011.0,STARLINK-5124,PAYLOAD,2023-08-11 23:12:48,15.08838497,0.0001065,53.2157,107.3395,87.2759,272.8355,0.00011318,1.514e-05,0.0,0 STARLINK-5124,1 54011U 22125AZ  23223.96722890  .00001514  00000-0  11318-3 0  9996,2 54011  53.2157 107.3395 0001065  87.2759 272.8355 15.08838497 47639,6917.885,95.438,540.487,539.013,0.0
54011.0,STARLINK-5124,PAYLOAD,2023-08-13 02:14:21,15.08847934,0.0001101,53.2156,102.2838,84.585,275.5267,0.00022121,3.235e-05,0.0,0 STARLINK-5124,1 54011U 22125AZ  23225.09330500  .00003235  00000-0  22121-3 0  9991,2 54011  53.2156 102.2838 0001101  84.5850 275.5267 15.08847934 47804,6917.856,95.437,540.483,538.959,0.0
54011.0,STARLINK-5124,PAYLOAD,2023-08-14 02:05:09,15.08838088,0.0001133,53.2155,97.8237,85.2519,274.8602,5.33e-05,5.61e-06,0.0,0 STARLINK-5124,1 54011U 22125AZ  23226.08691154  .00000561  00000-0  53300-4 0  9999,2 54011  53.2155  97.8237 0001133  85.2519 274.8602 15.08838088 47951,6917.886,95.438,540.535,538.967,0.0
54011.0,STARLINK-5124,PAYLOAD,2023-08-16 00:11:19,15.08847867,0.0001227,53.217,89.1993,85.0035,275.1097,0.00016045,2.267e-05,0.0,0 STARLINK-5124,1 54011U 22125AZ  23228.00786765  .00002267  00000-0  16045-3 0  9995,2 54011  53.2170  89.1993 0001227  85.0035 275.1097 15.08847867 48246,6917.856,95.437,540.57,538.873,0.0
54011.0,STARLINK-5124,PAYLOAD,2023-08-17 00:02:07,15.08821708,0.000141,53.2155,84.7367,111.7839,248.3304,0.00038565,5.852e-05,0.0,0 STARLINK-5124,1 54011U 22125AZ  23229.00147635  .00005852  00000-0  38565-3 0  9997,2 54011  53.2155  84.7367 0001410 111.7839 248.3304 15.08821708 48393,6917.936,95.439,540.777,538.826,0.0
54011.0,STARLINK-5124,PAYLOAD,2023-08-17 23:52:53,15.08847248,0.000146,53.2154,80.2769,97.7306,262.3852,9.2863e-05,1.191e-05,0.0,0 STARLINK-5124,1 54011U 22125AZ  23229.99506694  .00001191  00000-0  92863-4 0  9993,2 54011  53.2154  80.2769 0001460  97.7306 262.3852 15.08847248 48544,6917.858,95.437,540.733,538.713,0.0
54011.0,STARLINK-5124,PAYLOAD,2023-08-18 23:43:41,15.08836088,0.0001211,53.2145,75.8172,103.9898,256.1228,8.3503e-06,-1.55e-06,0.0,0 STARLINK-5124,1 54011U 22125AZ  23230.98867476 -.00000155  00000-0  83503-5 0  9994,2 54011  53.2145  75.8172 0001211 103.9898 256.1228 15.08836088 48696,6917.892,95.438,540.595,538.92,0.0
54011.0,STARLINK-5124,PAYLOAD,2023-08-19 14:02:09,15.0884763,0.000138,53.2152,73.141,97.5441,262.5708,-0.00017319,-3.044e-05,0.0,0 STARLINK-5124,1 54011U 22125AZ  23231.58483245 -.00003044  00000-0 -17319-3 0  9990,2 54011  53.2152  73.1410 0001380  97.5441 262.5708 15.08847630 48788,6917.857,95.437,540.677,538.767,0.0
54011.0,STARLINK-5124,PAYLOAD,2023-08-19 23:34:28,15.08835229,0.0001849,53.2159,71.3573,82.4867,277.6336,0.00035442,5.356e-05,0.0,0 STARLINK-5124,1 54011U 22125AZ  23231.98227891  .00005356  00000-0  35442-3 0  9990,2 54011  53.2159  71.3573 0001849  82.4867 277.6336 15.08835229 48842,6917.895,95.438,541.039,538.481,0.0
54011.0,STARLINK-5124,PAYLOAD,2023-08-21 01:00:38,15.0884622,0.0001185,53.2164,66.5983,88.8449,271.2679,0.00020971,3.052e-05,0.0,0 STARLINK-5124,1 54011U 22125AZ  23233.04211301  .00003052  00000-0  20971-3 0  9990,2 54011  53.2164  66.5983 0001185  88.8449 271.2679 15.08846220 49000,6917.861,95.437,540.546,538.907,0.0
54011.0,STARLINK-5124,PAYLOAD,2023-08-21 05:46:48,15.08834473,0.0002407,53.2169,65.7027,83.0822,277.0444,-2.7063e-05,-7.19e-06,0.0,0 STARLINK-5124,1 54011U 22125AZ  23233.24084153 -.00000719  00000-0 -27063-4 0  9994,2 54011  53.2169  65.7027 0002407  83.0822 277.0444 15.08834473 49039,6917.897,95.438,541.427,538.097,0.0
54011.0,STARLINK-5124,PAYLOAD,2023-08-22 23:06:50,15.08835595,0.0001231,53.2169,57.9753,86.869,273.2443,7.8328e-06,-1.63e-06,0.0,0 STARLINK-5124,1 54011U 22125AZ  23234.96308399 -.00000163  00000-0  78328-5 0  9998,2 54011  53.2169  57.9753 0001231  86.8690 273.2443 15.08835595 49297,6917.894,95.438,540.61,538.907,0.0
54011.0,STARLINK-5124,PAYLOAD,2023-08-24 14:51:28,15.088433,0.0001635,53.2154,50.542,73.5006,286.6166,0.00012953,1.774e-05,0.0,0 STARLINK-5124,1 54011U 22125AZ  23236.61908493  .00001774  00000-0  12953-3 0  9991,2 54011  53.2154  50.5420 0001635  73.5006 286.6166 15.08843300 49544,6917.87,95.437,540.866,538.604,0.0
54011.0,STARLINK-5124,PAYLOAD,2023-08-25 17:53:02,15.0884372,0.0001346,53.2162,45.4863,74.976,285.1381,4.9195e-05,4.95e-06,0.0,0 STARLINK-5124,1 54011U 22125AZ  23237.74516267  .00000495  00000-0  49195-4 0  9998,2 54011  53.2162  45.4863 0001346  74.9760 285.1381 15.08843720 49716,6917.869,95.437,540.665,538.803,0.0
54011.0,STARLINK-5124,PAYLOAD,2023-08-26 11:22:16,15.08838,0.000133,53.2163,42.215,79.4033,280.7109,6.8837e-05,8.08e-06,0.0,0 STARLINK-5124,1 54011U 22125AZ  23238.47380580  .00000808  00000-0  68837-4 0  9998,2 54011  53.2163  42.2150 0001330  79.4033 280.7109 15.08838000 49823,6917.887,95.438,540.672,538.831,0.0
54011.0,STARLINK-5124,PAYLOAD,2023-08-26 20:54:35,15.0884233,0.0001282,53.2176,40.4293,88.6694,271.4445,0.00010376,1.364e-05,0.0,0 STARLINK-5124,1 54011U 22125AZ  23238.87124199  .00001364  00000-0  10376-3 0  9996,2 54011  53.2176  40.4293 0001282  88.6694 271.4445 15.08842330 49838,6917.873,95.437,540.625,538.851,0.0
54011.0,STARLINK-5124,PAYLOAD,2023-08-27 15:59:13,15.08841137,0.0001272,53.2172,36.8621,85.4883,274.6255,6.554e-05,7.55e-06,0.0,0 STARLINK-5124,1 54011U 22125AZ  23239.66612552  .00000755  00000-0  65540-4 0  9996,2 54011  53.2172  36.8621 0001272  85.4883 274.6255 15.08841137 50001,6917.877,95.437,540.622,538.862,0.0
54011.0,STARLINK-5124,PAYLOAD,2023-08-28 17:25:23,15.08839926,0.0001254,53.2181,32.1046,75.5186,284.5945,8.7695e-05,1.108e-05,0.0,0 STARLINK-5124,1 54011U 22125AZ  23240.72596905  .00001108  00000-0  87695-4 0  9996,2 54011  53.2181  32.1046 0001254  75.5186 284.5945 15.08839926 50163,6917.881,95.438,540.613,538.878,0.0
54011.0,STARLINK-5124,PAYLOAD,2023-08-28 20:36:09,15.08843641,0.0001267,53.2186,31.5089,76.3915,283.7218,0.00011341,1.518e-05,0.0,0 STARLINK-5124,1 54011U 22125AZ  23240.85844620  .00001518  00000-0  11341-3 0  9999,2 54011  53.2186  31.5089 0001267  76.3915 283.7218 15.08843641 50131,6917.869,95.437,540.611,538.858,0.0
54011.0,STARLINK-5124,PAYLOAD,2023-08-29 09:19:15,15.08826262,0.0001172,53.2178,29.1315,87.3574,272.7552,0.00028875,4.309e-05,0.0,0 STARLINK-5124,1 54011U 22125AZ  23241.38837638  .00004309  00000-0  28875-3 0  9990,2 54011  53.2178  29.1315 0001172  87.3574 272.7552 15.08826262 50268,6917.922,95.438,540.598,538.977,0.0
54011.0,STARLINK-5124,PAYLOAD,2023-08-29 17:16:10,15.08845016,0.0001225,53.2178,27.6445,81.3212,278.7919,0.00013401,1.846e-05,0.0,0 STARLINK-5124,1 54011U 22125AZ  23241.71956658  .00001846  00000-0  13401-3 0  9993,2 54011  53.2178  27.6445 0001225  81.3212 278.7919 15.08845016 50314,6917.865,95.437,540.577,538.883,0.0
54011.0,STARLINK-5124,PAYLOAD,2023-08-30 13:56:11,15.08839263,0.0001295,53.2177,23.7778,86.3542,273.7598,5.9174e-05,6.54e-06,0.0,0 STARLINK-5124,1 54011U 22125AZ  23242.58069182  .00000654  00000-0  59174-4 0  9990,2 54011  53.2177  23.7778 0001295  86.3542 273.7598 15.08839263 50446,6917.883,95.438,540.644,538.852,0.0
54011.0,STARLINK-5124,PAYLOAD,2023-08-31 12:11:33,15.08908926,0.0001914,53.2178,19.6148,68.885,291.2347,-0.00093867,-0.00015225,0.0,0 STARLINK-5124,1 54011U 22125AZ  23243.50802390 -.00015225  00000-0 -93867-3 0  9997,2 54011  53.2178  19.6148 0001914  68.8850 291.2347 15.08908926 50582,6917.67,95.433,540.859,538.211,0.0
54011.0,STARLINK-5124,PAYLOAD,2023-09-01 02:30:03,15.08848146,0.0001068,53.2176,16.9413,83.6751,276.4363,4.0277e-05,3.53e-06,0.0,0 STARLINK-5124,1 54011U 22125AZ  23244.10420403  .00000353  00000-0  40277-4 0  9997,2 54011  53.2176  16.9413 0001068  83.6751 276.4363 15.08848146 50670,6917.855,95.437,540.459,538.982,0.0
54011.0,STARLINK-5124,PAYLOAD,2023-09-01 08:51:36,15.08821002,7.51e-05,53.2168,15.7522,91.2789,268.8289,0.00039586,6.015e-05,0.0,0 STARLINK-5124,1 54011U 22125AZ  23244.36917335  .00006015  00000-0  39586-3 0  9991,2 54011  53.2168  15.7522 0000751  91.2789 268.8289 15.08821002 50712,6917.938,95.439,540.323,539.284,0.0
54011.0,STARLINK-5124,PAYLOAD,2023-09-01 12:02:22,15.08838525,0.0001154,53.217,15.1581,79.7086,280.4037,8.7825e-05,1.11e-05,0.0,0 STARLINK-5124,1 54011U 22125AZ  23244.50165007  .00001110  00000-0  87825-4 0  9999,2 54011  53.2170  15.1581 0001154  79.7086 280.4037 15.08838525 50688,6917.885,95.438,540.548,538.952,0.0
54011.0,STARLINK-5124,PAYLOAD,2023-09-01 18:23:54,15.08844271,0.0001557,53.2179,13.962,114.7588,245.3566,0.00015769,2.223e-05,0.0,0 STARLINK-5124,1 54011U 22125AZ  23244.76660348  .00002223  00000-0  15769-3 0  9998,2 54011  53.2179  13.9620 0001557 114.7588 245.3566 15.08844271 50773,6917.867,95.437,540.809,538.655,0.0
54011.0,STARLINK-5124,PAYLOAD,2023-09-02 02:20:50,15.08839104,0.0001757,53.2176,12.4774,98.0875,262.0316,5.7428e-05,6.26e-06,0.0,0 STARLINK-5124,1 54011U 22125AZ  23245.09781053  .00000626  00000-0  57428-4 0  9996,2 54011  53.2176  12.4774 0001757  98.0875 262.0316 15.08839104 50823,6917.883,95.438,540.964,538.533,0.0
54011.0,STARLINK-5124,PAYLOAD,2023-09-02 13:28:32,15.08842921,0.0001119,53.2183,10.3977,95.9545,264.1575,6.7066e-05,7.8e-06,0.0,0 STARLINK-5124,1 54011U 22125AZ  23245.56148666  .00000780  00000-0  67066-4 0  9995,2 54011  53.2183  10.3977 0001119  95.9545 264.1575 15.08842921 50848,6917.871,95.437,540.511,538.962,0.0
